[
    {
        "Altitude(m)": 710602.5854151989,
        "Argument of Periapsis(deg)": 0.009112096949301655,
        "Eccentricity": 0.0,
        "Inclination(deg)": 45.0,
        "Latitude(deg)": -27.11849813804953,
        "Longitude(deg)": -96.2355936312266,
        "Mean Anomaly(deg)": 320.1356733179847,
        "RAAN(deg)": 34.991398446833436,
        "Satellite Name": "Constellation 1 173",
        "Satellite Number": 173,
        "Semi-Major Axis(m)": 7083131.272910544,
        "Time(s)": 152
    },
    {
        "Altitude(m)": 710588.7298347753,
        "Argument of Periapsis(deg)": 0.009172044955547059,
        "Eccentricity": 0.0,
        "Inclination(deg)": 45.0,
        "Latitude(deg)": -27.081430854682893,
        "Longitude(deg)": -96.18578085364142,
        "Mean Anomaly(deg)": 320.19637445823463,
        "RAAN(deg)": 34.99134185766786,
        "Satellite Name": "Constellation 1 173",
        "Satellite Number": 173,
        "Semi-Major Axis(m)": 7083131.272910544,
        "Time(s)": 153
    },
    {
        "Altitude(m)": 710574.8740549488,
        "Argument of Periapsis(deg)": 0.009231992961792466,
        "Eccentricity": 0.0,
        "Inclination(deg)": 45.0,
        "Latitude(deg)": -27.04434263093131,
        "Longitude(deg)": -96.13600341248976,
        "Mean Anomaly(deg)": 320.2570755984845,
        "RAAN(deg)": 34.991285268502295,
        "Satellite Name": "Constellation 1 173",
        "Satellite Number": 173,
        "Semi-Major Axis(m)": 7083131.272910544,
        "Time(s)": 154
    },
    {
        "Altitude(m)": 710561.018123488,
        "Argument of Periapsis(deg)": 0.009291940968037872,
        "Eccentricity": 0.0,
        "Inclination(deg)": 45.0,
        "Latitude(deg)": -27.00723351296588,
        "Longitude(deg)": -96.08626124783761,
        "Mean Anomaly(deg)": 320.3177767387344,
        "RAAN(deg)": 34.99122867933672,
        "Satellite Name": "Constellation 1 173",
        "Satellite Number": 173,
        "Semi-Major Axis(m)": 7083131.272910544,
        "Time(s)": 155
    },
    {
        "Altitude(m)": 710547.1620881376,
        "Argument of Periapsis(deg)": 0.009351888974283276,
        "Eccentricity": 0.0,
        "Inclination(deg)": 45.0,
        "Latitude(deg)": -26.970103546890833,
        "Longitude(deg)": -96.03655446783402,
        "Mean Anomaly(deg)": 320.37847787898437,
        "RAAN(deg)": 34.99117209017116,
        "Satellite Name": "Constellation 1 173",
        "Satellite Number": 173,
        "Semi-Major Axis(m)": 7083131.272910544,
        "Time(s)": 156
    },
    {
        "Altitude(m)": 710533.3059966355,
        "Argument of Periapsis(deg)": 0.00941183698052868,
        "Eccentricity": 0.0,
        "Inclination(deg)": 45.0,
        "Latitude(deg)": -26.932952778744045,
        "Longitude(deg)": -95.98688267632318,
        "Mean Anomaly(deg)": 320.4391790192342,
        "RAAN(deg)": 34.99111550100559,
        "Satellite Name": "Constellation 1 173",
        "Satellite Number": 173,
        "Semi-Major Axis(m)": 7083131.272910544,
        "Time(s)": 157
    },
    {
        "Altitude(m)": 710519.449896706,
        "Argument of Periapsis(deg)": 0.009471784986774088,
        "Eccentricity": 0.0,
        "Inclination(deg)": 45.0,
        "Latitude(deg)": -26.895781254496193,
        "Longitude(deg)": -95.93724598142708,
        "Mean Anomaly(deg)": 320.4998801594841,
        "RAAN(deg)": 34.99105891184002,
        "Satellite Name": "Constellation 1 173",
        "Satellite Number": 173,
        "Semi-Major Axis(m)": 7083131.272910544,
        "Time(s)": 158
    },
    {
        "Altitude(m)": 710505.5938360702,
        "Argument of Periapsis(deg)": 0.009531732993019492,
        "Eccentricity": 0.0,
        "Inclination(deg)": 45.0,
        "Latitude(deg)": -26.858589020051614,
        "Longitude(deg)": -95.88764432315807,
        "Mean Anomaly(deg)": 320.560581299734,
        "RAAN(deg)": 34.99100232267445,
        "Satellite Name": "Constellation 1 173",
        "Satellite Number": 173,
        "Semi-Major Axis(m)": 7083131.272910544,
        "Time(s)": 159
    },
    {
        "Altitude(m)": 710491.7378624221,
        "Argument of Periapsis(deg)": 0.009591680999264898,
        "Eccentricity": 0.0,
        "Inclination(deg)": 45.0,
        "Latitude(deg)": -26.821376121248026,
        "Longitude(deg)": -95.83807764151584,
        "Mean Anomaly(deg)": 320.62128243998393,
        "RAAN(deg)": 34.99094573350888,
        "Satellite Name": "Constellation 1 173",
        "Satellite Number": 173,
        "Semi-Major Axis(m)": 7083131.272910544,
        "Time(s)": 160
    },
    {
        "Altitude(m)": 710477.882023459,
        "Argument of Periapsis(deg)": 0.009651629005510304,
        "Eccentricity": 0.0,
        "Inclination(deg)": 45.0,
        "Latitude(deg)": -26.784142603856985,
        "Longitude(deg)": -95.78854587648858,
        "Mean Anomaly(deg)": 320.68198358023375,
        "RAAN(deg)": 34.990889144343306,
        "Satellite Name": "Constellation 1 173",
        "Satellite Number": 173,
        "Semi-Major Axis(m)": 7083131.272910544,
        "Time(s)": 161
    },
    {
        "Altitude(m)": 710464.0263668539,
        "Argument of Periapsis(deg)": 0.00971157701175571,
        "Eccentricity": 0.0,
        "Inclination(deg)": 45.0,
        "Latitude(deg)": -26.74688851358326,
        "Longitude(deg)": -95.73904896805213,
        "Mean Anomaly(deg)": 320.74268472048374,
        "RAAN(deg)": 34.99083255517774,
        "Satellite Name": "Constellation 1 173",
        "Satellite Number": 173,
        "Semi-Major Axis(m)": 7083131.272910544,
        "Time(s)": 162
    },
    {
        "Altitude(m)": 710450.1709402779,
        "Argument of Periapsis(deg)": 0.009771525018001118,
        "Eccentricity": 0.0,
        "Inclination(deg)": 45.0,
        "Latitude(deg)": -26.709613896065722,
        "Longitude(deg)": -95.68958702426912,
        "Mean Anomaly(deg)": 320.80338586073356,
        "RAAN(deg)": 34.99077596601217,
        "Satellite Name": "Constellation 1 173",
        "Satellite Number": 173,
        "Semi-Major Axis(m)": 7083131.272910544,
        "Time(s)": 163
    },
    {
        "Altitude(m)": 710436.3157913816,
        "Argument of Periapsis(deg)": 0.00983147302424652,
        "Eccentricity": 0.0,
        "Inclination(deg)": 45.0,
        "Latitude(deg)": -26.6723187968771,
        "Longitude(deg)": -95.64015964889938,
        "Mean Anomaly(deg)": 320.8640870009835,
        "RAAN(deg)": 34.9907193768466,
        "Satellite Name": "Constellation 1 173",
        "Satellite Number": 173,
        "Semi-Major Axis(m)": 7083131.272910544,
        "Time(s)": 164
    },
    {
        "Altitude(m)": 710422.4609678049,
        "Argument of Periapsis(deg)": 0.009891421030491928,
        "Eccentricity": 0.0,
        "Inclination(deg)": 45.0,
        "Latitude(deg)": -26.635003261523764,
        "Longitude(deg)": -95.590766949984,
        "Mean Anomaly(deg)": 320.9247881412334,
        "RAAN(deg)": 34.99066278768103,
        "Satellite Name": "Constellation 1 173",
        "Satellite Number": 173,
        "Semi-Major Axis(m)": 7083131.272910544,
        "Time(s)": 165
    },
    {
        "Altitude(m)": 710408.6065171743,
        "Argument of Periapsis(deg)": 0.009951369036737332,
        "Eccentricity": 0.0,
        "Inclination(deg)": 45.0,
        "Latitude(deg)": -26.59766733544621,
        "Longitude(deg)": -95.54140886745687,
        "Mean Anomaly(deg)": 320.9854892814833,
        "RAAN(deg)": 34.990606198515465,
        "Satellite Name": "Constellation 1 173",
        "Satellite Number": 173,
        "Semi-Major Axis(m)": 7083131.272910544,
        "Time(s)": 166
    },
    {
        "Altitude(m)": 710394.7524871081,
        "Argument of Periapsis(deg)": 0.010011317042982738,
        "Eccentricity": 0.0,
        "Inclination(deg)": 45.0,
        "Latitude(deg)": -26.560311064019107,
        "Longitude(deg)": -95.49208534124246,
        "Mean Anomaly(deg)": 321.0461904217332,
        "RAAN(deg)": 34.99054960934989,
        "Satellite Name": "Constellation 1 173",
        "Satellite Number": 173,
        "Semi-Major Axis(m)": 7083131.272910544,
        "Time(s)": 167
    },
    {
        "Altitude(m)": 710380.8989251988,
        "Argument of Periapsis(deg)": 0.010071265049228144,
        "Eccentricity": 0.0,
        "Inclination(deg)": 45.0,
        "Latitude(deg)": -26.522934492551197,
        "Longitude(deg)": -95.44279631125588,
        "Mean Anomaly(deg)": 321.1068915619831,
        "RAAN(deg)": 34.990493020184324,
        "Satellite Name": "Constellation 1 173",
        "Satellite Number": 173,
        "Semi-Major Axis(m)": 7083131.272910544,
        "Time(s)": 168
    },
    {
        "Altitude(m)": 710367.0458790389,
        "Argument of Periapsis(deg)": 0.01013121305547355,
        "Eccentricity": 0.0,
        "Inclination(deg)": 45.0,
        "Latitude(deg)": -26.485537666285467,
        "Longitude(deg)": -95.39354171740338,
        "Mean Anomaly(deg)": 321.167592702233,
        "RAAN(deg)": 34.99043643101875,
        "Satellite Name": "Constellation 1 173",
        "Satellite Number": 173,
        "Semi-Major Axis(m)": 7083131.272910544,
        "Time(s)": 169
    },
    {
        "Altitude(m)": 710353.1933962011,
        "Argument of Periapsis(deg)": 0.010191161061718957,
        "Eccentricity": 0.0,
        "Inclination(deg)": 45.0,
        "Latitude(deg)": -26.448120630399327,
        "Longitude(deg)": -95.34432149958292,
        "Mean Anomaly(deg)": 321.2282938424829,
        "RAAN(deg)": 34.99037984185318,
        "Satellite Name": "Constellation 1 173",
        "Satellite Number": 173,
        "Semi-Major Axis(m)": 7083131.272910544,
        "Time(s)": 170
    }
]